NORAD_CAT_ID,OBJECT_NAME,OBJECT_TYPE,EPOCH,MEAN_MOTION,ECCENTRICITY,INCLINATION,RA_OF_ASC_NODE,ARG_OF_PERICENTER,MEAN_ANOMALY,BSTAR,MEAN_MOTION_DOT,MEAN_MOTION_DDOT,TLE_LINE0,TLE_LINE1,TLE_LINE2,SEMIMAJOR_AXIS,PERIOD,APOGEE,PERIGEE,DECAYED
52661.0,STARLINK-4042,PAYLOAD,2023-07-31 16:21:27,15.08833596,0.0001055,53.2169,107.8486,87.9736,272.1377,8.5589e-05,1.074e-05,0.0,0 STARLINK-4042,1 52661U 22053F   23212.68156362  .00001074  00000-0  85589-4 0  9990,2 52661  53.2169 107.8486 0001055  87.9736 272.1377 15.08833596 67328,6917.9,95.438,540.495,539.035,0.0
52661.0,STARLINK-4042,PAYLOAD,2023-08-01 01:53:45,15.08845527,0.0001117,53.2169,106.0659,86.8634,273.2486,0.0001534,2.155e-05,0.0,0 STARLINK-4042,1 52661U 22053F   23213.07899583  .00002155  00000-0  15340-3 0  9991,2 52661  53.2169 106.0659 0001117  86.8634 273.2486 15.08845527 67381,6917.863,95.437,540.501,538.956,0.0
52661.0,STARLINK-4042,PAYLOAD,2023-08-02 01:44:32,15.0884261,0.0001245,53.2167,101.6048,83.3454,276.768,0.00013115,1.8e-05,0.0,0 STARLINK-4042,1 52661U 22053F   23214.07260044  .00001800  00000-0  13115-3 0  9990,2 52661  53.2167 101.6048 0001245  83.3454 276.7680 15.08842610 67537,6917.872,95.437,540.599,538.876,0.0
52661.0,STARLINK-4042,PAYLOAD,2023-08-03 01:35:19,15.08853748,0.0001195,53.2163,97.1415,84.1885,275.9244,0.00033918,5.116e-05,0.0,0 STARLINK-4042,1 52661U 22053F   23215.06619692  .00005116  00000-0  33918-3 0  9994,2 52661  53.2163  97.1415 0001195  84.1885 275.9244 15.08853748 67688,6917.838,95.437,540.53,538.877,0.0
52661.0,STARLINK-4042,PAYLOAD,2023-08-03 22:15:20,15.08841728,0.0001245,53.2168,93.273,118.0758,242.036,0.00010146,1.327e-05,0.0,0 STARLINK-4042,1 52661U 22053F   23215.92732147  .00001327  00000-0  10146-3 0  9998,2 52661  53.2168  93.2730 0001245 118.0758 242.0360 15.08841728 67816,6917.875,95.437,540.601,538.879,0.0
52661.0,STARLINK-4042,PAYLOAD,2023-08-05 18:46:08,15.08850832,0.000115,53.2154,84.9517,87.7018,272.4105,0.00028492,4.251e-05,0.0,0 STARLINK-4042,1 52661U 22053F   23217.78204003  .00004251  00000-0  28492-3 0  9991,2 52661  53.2154  84.9517 0001150  87.7018 272.4105 15.08850832 68098,6917.847,95.437,540.508,538.917,0.0
52661.0,STARLINK-4042,PAYLOAD,2023-08-06 15:26:09,15.08830355,0.0001219,53.2144,81.0909,83.0525,277.0606,1.3236e-05,-7.7e-07,0.0,0 STARLINK-4042,1 52661U 22053F   23218.64316915 -.00000077  00000-0  13236-4 0  9997,2 52661  53.2144  81.0909 0001219  83.0525 277.0606 15.08830355 68228,6917.91,95.438,540.618,538.932,0.0
52661.0,STARLINK-4042,PAYLOAD,2023-08-07 18:27:43,15.08842985,9.6e-05,53.2159,76.0298,102.93,257.18,0.00024306,3.583e-05,0.0,0 STARLINK-4042,1 52661U 22053F   23219.76925057  .00003583  00000-0  24306-3 0  9997,2 52661  53.2159  76.0298 0000960 102.9300 257.1800 15.08842985 68398,6917.871,95.437,540.4,539.072,0.0
52661.0,STARLINK-4042,PAYLOAD,2023-08-09 00:40:02,15.08858056,9.16e-05,53.2159,70.3799,101.0388,259.0707,0.00042565,6.496e-05,0.0,0 STARLINK-4042,1 52661U 22053F   23221.02780442  .00006496  00000-0  42565-3 0  9999,2 52661  53.2159  70.3799 0000916 101.0388 259.0707 15.08858056 68582,6917.825,95.436,540.324,539.057,0.0
52661.0,STARLINK-4042,PAYLOAD,2023-08-09 07:01:34,15.08849651,8.4e-05,53.2155,69.1904,84.4616,275.6472,0.00014363,1.999e-05,0.0,0 STARLINK-4042,1 52661U 22053F   23221.29276510  .00001999  00000-0  14363-3 0  9992,2 52661  53.2155  69.1904 0000840  84.4616 275.6472 15.08849651 68625,6917.851,95.437,540.297,539.135,0.0
52661.0,STARLINK-4042,PAYLOAD,2023-08-10 00:30:49,15.0884339,0.0001052,53.2158,65.9192,88.3183,271.793,4.5941e-05,4.44e-06,0.0,0 STARLINK-4042,1 52661U 22053F   23222.02140859  .00000444  00000-0  45941-4 0  9991,2 52661  53.2158  65.9192 0001052  88.3183 271.7930 15.08843390 68731,6917.87,95.437,540.463,539.007,0.0
52661.0,STARLINK-4042,PAYLOAD,2023-08-10 06:52:22,15.08840436,0.0001169,53.2161,64.7296,80.2227,279.8897,-3.5589e-05,-8.54e-06,0.0,0 STARLINK-4042,1 52661U 22053F   23222.28637249 -.00000854  00000-0 -35589-4 0  9997,2 52661  53.2161  64.7296 0001169  80.2227 279.8897 15.08840436 68779,6917.879,95.438,540.553,538.935,0.0
52661.0,STARLINK-4042,PAYLOAD,2023-08-11 17:50:51,15.08847818,0.0001189,53.2153,58.1873,75.7842,284.3282,-6.5115e-05,-1.324e-05,0.0,0 STARLINK-4042,1 52661U 22053F   23223.74364739 -.00001324  00000-0 -65115-4 0  9991,2 52661  53.2153  58.1873 0001189  75.7842 284.3282 15.08847818 68996,6917.856,95.437,540.544,538.899,0.0
52661.0,STARLINK-4042,PAYLOAD,2023-08-12 20:52:24,15.08841421,0.0001074,53.2173,53.13,98.8517,261.2597,9.3486e-05,1.2e-05,0.0,0 STARLINK-4042,1 52661U 22053F   23224.86973087  .00001200  00000-0  93486-4 0  9990,2 52661  53.2173  53.1300 0001074  98.8517 261.2597 15.08841421 69163,6917.876,95.437,540.484,538.998,0.0
52661.0,STARLINK-4042,PAYLOAD,2023-08-14 04:40:07,15.0884214,9.67e-05,53.2177,47.1842,86.6262,273.4841,2.0352e-05,3.6e-07,0.0,0 STARLINK-4042,1 52661U 22053F   23226.19453078  .00000036  00000-0  20352-4 0  9999,2 52661  53.2177  47.1842 0000967  86.6262 273.4841 15.08842140 69361,6917.874,95.437,540.408,539.07,0.0
52661.0,STARLINK-4042,PAYLOAD,2023-08-15 04:30:54,15.08829335,9.81e-05,53.2176,42.7253,91.3559,268.7545,0.00025952,3.844e-05,0.0,0 STARLINK-4042,1 52661U 22053F   23227.18813512  .00003844  00000-0  25952-3 0  9992,2 52661  53.2176  42.7253 0000981  91.3559 268.7545 15.08829335 69511,6917.913,95.438,540.457,539.099,0.0
52661.0,STARLINK-4042,PAYLOAD,2023-08-16 10:43:15,15.08825912,0.0001172,53.2174,37.0746,83.8572,276.2553,0.00012018,1.625e-05,0.0,0 STARLINK-4042,1 52661U 22053F   23228.44670327  .00001625  00000-0  12018-3 0  9991,2 52661  53.2174  37.0746 0001172  83.8572 276.2553 15.08825912 69708,6917.923,95.438,540.599,538.978,0.0
52661.0,STARLINK-4042,PAYLOAD,2023-08-17 10:34:01,15.08841104,0.0001146,53.2156,32.614,81.1004,279.0118,0.00011878,1.603e-05,0.0,0 STARLINK-4042,1 52661U 22053F   23229.44029408  .00001603  00000-0  11878-3 0  9999,2 52661  53.2156  32.6140 0001146  81.1004 279.0118 15.08841104 69854,6917.877,95.437,540.535,538.949,0.0
52661.0,STARLINK-4042,PAYLOAD,2023-08-17 23:17:05,15.08849256,0.0001366,53.2167,30.2351,80.8552,279.2595,0.00022498,3.295e-05,0.0,0 STARLINK-4042,1 52661U 22053F   23229.97020615  .00003295  00000-0  22498-3 0  9997,2 52661  53.2167  30.2351 0001366  80.8552 279.2595 15.08849256 69938,6917.852,95.437,540.662,538.772,0.0
52661.0,STARLINK-4042,PAYLOAD,2023-08-18 10:24:49,15.08828734,8.15e-05,53.217,28.154,91.2001,268.9084,3.388e-05,2.51e-06,0.0,0 STARLINK-4042,1 52661U 22053F   23230.43390392  .00000251  00000-0  33880-4 0  9999,2 52661  53.2170  28.1540 0000815  91.2001 268.9084 15.08828734 70007,6917.915,95.438,540.344,539.216,0.0
52661.0,STARLINK-4042,PAYLOAD,2023-08-18 23:07:53,15.08843433,0.0001215,53.2151,25.7744,88.2092,271.9039,9.6663e-05,1.251e-05,0.0,0 STARLINK-4042,1 52661U 22053F   23230.96381383  .00001251  00000-0  96663-4 0  9996,2 52661  53.2151  25.7744 0001215  88.2092 271.9039 15.08843433 70081,6917.87,95.437,540.575,538.894,0.0
52661.0,STARLINK-4042,PAYLOAD,2023-08-19 10:15:35,15.08837377,0.0001313,53.2149,23.6928,87.8127,272.3015,1.7417e-05,-1.1e-07,0.0,0 STARLINK-4042,1 52661U 22053F   23231.42749781 -.00000011  00000-0  17417-4 0  9992,2 52661  53.2149  23.6928 0001313  87.8127 272.3015 15.08837377 70159,6917.888,95.438,540.662,538.845,0.0
52661.0,STARLINK-4042,PAYLOAD,2023-08-19 21:23:17,15.08851918,0.0001404,53.217,21.611,84.0758,276.0394,3.9756e-05,3.45e-06,0.0,0 STARLINK-4042,1 52661U 22053F   23231.89116935  .00000345  00000-0  39756-4 0  9991,2 52661  53.2170  21.6110 0001404  84.0758 276.0394 15.08851918 70220,6917.844,95.437,540.68,538.738,0.0
52661.0,STARLINK-4042,PAYLOAD,2023-08-20 10:06:23,15.08833838,0.0001292,53.2155,19.2333,93.3076,266.8064,0.00013316,1.832e-05,0.0,0 STARLINK-4042,1 52661U 22053F   23232.42109975  .00001832  00000-0  13316-3 0  9992,2 52661  53.2155  19.2333 0001292  93.3076 266.8064 15.08833838 70305,6917.899,95.438,540.658,538.87,0.0
52661.0,STARLINK-4042,PAYLOAD,2023-08-20 19:38:41,15.08844498,0.0001077,53.2172,17.448,101.4264,258.6849,0.00012008,1.624e-05,0.0,0 STARLINK-4042,1 52661U 22053F   23232.81853459  .00001624  00000-0  12008-3 0  9994,2 52661  53.2172  17.4480 0001077 101.4264 258.6849 15.08844498 70368,6917.867,95.437,540.477,538.987,0.0
52661.0,STARLINK-4042,PAYLOAD,2023-08-21 08:21:46,15.08838518,8.21e-05,53.219,15.0722,89.0033,271.1054,0.00020593,2.991e-05,0.0,0 STARLINK-4042,1 52661U 22053F   23233.34845856  .00002991  00000-0  20593-3 0  9991,2 52661  53.2190  15.0722 0000821  89.0033 271.1054 15.08838518 70445,6917.885,95.438,540.318,539.182,0.0
52661.0,STARLINK-4042,PAYLOAD,2023-08-22 09:47:57,15.08834733,0.0001032,53.2187,10.3132,90.8573,269.2537,9.1365e-05,1.166e-05,0.0,0 STARLINK-4042,1 52661U 22053F   23234.40830377  .00001166  00000-0  91365-4 0  9990,2 52661  53.2187  10.3132 0001032  90.8573 269.2537 15.08834733 70605,6917.896,95.438,540.475,539.048,0.0
52661.0,STARLINK-4042,PAYLOAD,2023-08-24 09:29:31,15.08840736,0.0001362,53.2206,1.3932,101.4839,258.6306,0.00012584,1.715e-05,0.0,0 STARLINK-4042,1 52661U 22053F   23236.39550517  .00001715  00000-0  12584-3 0  9990,2 52661  53.2206   1.3932 0001362 101.4839 258.6306 15.08840736 70904,6917.878,95.438,540.685,538.801,0.0
52661.0,STARLINK-4042,PAYLOAD,2023-08-25 07:44:55,15.08843698,0.0001246,53.2201,357.2302,98.4758,261.6376,8.845e-05,1.12e-05,0.0,0 STARLINK-4042,1 52661U 22053F   23237.32286421  .00001120  00000-0  88450-4 0  9990,2 52661  53.2201 357.2302 0001246  98.4758 261.6376 15.08843698 71046,6917.869,95.437,540.596,538.872,0.0
52661.0,STARLINK-4042,PAYLOAD,2023-08-25 12:31:04,15.0884466,0.0001066,53.2185,356.3371,91.3956,268.7158,8.8079e-05,1.114e-05,0.0,0 STARLINK-4042,1 52661U 22053F   23237.52158321  .00001114  00000-0  88079-4 0  9999,2 52661  53.2185 356.3371 0001066  91.3956 268.7158 15.08844660 71074,6917.866,95.437,540.469,538.994,0.0
